ORBCOMM-X               
1 21576U 91050C   24213.60736463  .00000650  00000+0  20854-3 0  9995
2 21576  98.3873 280.1132 0004883  81.1504 279.0239 14.42615790735882
ORBCOMM FM01            
1 23545U 95017A   24213.24601348  .00011328  00000+0  14555-2 0  9997
2 23545  69.9666 149.6488 0002966 117.7206 242.4245 14.81351462564823
ORBCOMM FM02            
1 23546U 95017B   24213.29465227  .00012407  00000+0  16050-2 0  9998
2 23546  69.9676 169.0816 0004346  95.2628 264.9018 14.81029292564479
ORBCOMM FM08            
1 25112U 97084A   24213.37917286  .00003605  00000+0  11073-2 0  9991
2 25112  45.0144 105.0086 0007709  66.2097 293.9561 14.43040451394988
ORBCOMM FM10            
1 25113U 97084B   24213.11491930  .00003324  00000+0  10268-2 0  9990
2 25113  45.0155 108.1993 0005620  36.0964 324.0265 14.42933589570097
ORBCOMM FM11            
1 25114U 97084C   24213.41795430  .00003177  00000+0  98602-3 0  9991
2 25114  45.0138 106.8919 0006368  37.8693 322.2604 14.42789665395108
ORBCOMM FM12            
1 25115U 97084D   24213.10287749  .00003197  00000+0  99278-3 0  9999
2 25115  45.0148 108.1214 0005442  36.2880 323.8339 14.42750212394855
ORBCOMM FM09            
1 25116U 97084E   24213.39322754  .00003154  00000+0  98073-3 0  9992
2 25116  45.0153 107.4462 0006477  24.3652 335.7504 14.42716120395108
