<?xml version="1.0" encoding="UTF-8"?>
<ndm xmlns:xsi="http://www.w3.org/2001/XMLSchema-instance" xsi:noNamespaceSchemaLocation="https://sanaregistry.org/r/ndmxml_unqualified/ndmxml-2.0.0-master-2.0.xsd">
<omm id="CCSDS_OMM_VERS" version="2.0">
<header><CREATION_DATE/><ORIGINATOR/></header><body><segment><metadata><OBJECT_NAME>ORBCOMM-X</OBJECT_NAME><OBJECT_ID>1991-050C</OBJECT_ID><CENTER_NAME>EARTH</CENTER_NAME><REF_FRAME>TEME</REF_FRAME><TIME_SYSTEM>UTC</TIME_SYSTEM><MEAN_ELEMENT_THEORY>SGP4</MEAN_ELEMENT_THEORY></metadata><data><meanElements><EPOCH>2024-07-31T14:34:36.304032</EPOCH><MEAN_MOTION>14.42615790</MEAN_MOTION><ECCENTRICITY>.0004883</ECCENTRICITY><INCLINATION>98.3873</INCLINATION><RA_OF_ASC_NODE>280.1132</RA_OF_ASC_NODE><ARG_OF_PERICENTER>81.1504</ARG_OF_PERICENTER><MEAN_ANOMALY>279.0239</MEAN_ANOMALY></meanElements><tleParameters><EPHEMERIS_TYPE>0</EPHEMERIS_TYPE><CLASSIFICATION_TYPE>U</CLASSIFICATION_TYPE><NORAD_CAT_ID>21576</NORAD_CAT_ID><ELEMENT_SET_NO>999</ELEMENT_SET_NO><REV_AT_EPOCH>73588</REV_AT_EPOCH><BSTAR>.20854E-3</BSTAR><MEAN_MOTION_DOT>.65E-5</MEAN_MOTION_DOT><MEAN_MOTION_DDOT>0</MEAN_MOTION_DDOT></tleParameters></data></segment></body></omm>
<omm id="CCSDS_OMM_VERS" version="2.0">
<header><CREATION_DATE/><ORIGINATOR/></header><body><segment><metadata><OBJECT_NAME>ORBCOMM FM01</OBJECT_NAME><OBJECT_ID>1995-017A</OBJECT_ID><CENTER_NAME>EARTH</CENTER_NAME><REF_FRAME>TEME</REF_FRAME><TIME_SYSTEM>UTC</TIME_SYSTEM><MEAN_ELEMENT_THEORY>SGP4</MEAN_ELEMENT_THEORY></metadata><data><meanElements><EPOCH>2024-07-31T05:54:15.564672</EPOCH><MEAN_MOTION>14.81351462</MEAN_MOTION><ECCENTRICITY>.0002966</ECCENTRICITY><INCLINATION>69.9666</INCLINATION><RA_OF_ASC_NODE>149.6488</RA_OF_ASC_NODE><ARG_OF_PERICENTER>117.7206</ARG_OF_PERICENTER><MEAN_ANOMALY>242.4245</MEAN_ANOMALY></meanElements><tleParameters><EPHEMERIS_TYPE>0</EPHEMERIS_TYPE><CLASSIFICATION_TYPE>U</CLASSIFICATION_TYPE><NORAD_CAT_ID>23545</NORAD_CAT_ID><ELEMENT_SET_NO>999</ELEMENT_SET_NO><REV_AT_EPOCH>56482</REV_AT_EPOCH><BSTAR>.14555E-2</BSTAR><MEAN_MOTION_DOT>.11328E-3</MEAN_MOTION_DOT><MEAN_MOTION_DDOT>0</MEAN_MOTION_DDOT></tleParameters></data></segment></body></omm>
<omm id="CCSDS_OMM_VERS" version="2.0">
<header><CREATION_DATE/><ORIGINATOR/></header><body><segment><metadata><OBJECT_NAME>ORBCOMM FM02</OBJECT_NAME><OBJECT_ID>1995-017B</OBJECT_ID><CENTER_NAME>EARTH</CENTER_NAME><REF_FRAME>TEME</REF_FRAME><TIME_SYSTEM>UTC</TIME_SYSTEM><MEAN_ELEMENT_THEORY>SGP4</MEAN_ELEMENT_THEORY></metadata><data><meanElements><EPOCH>2024-07-31T07:04:17.956128</EPOCH><MEAN_MOTION>14.81029292</MEAN_MOTION><ECCENTRICITY>.0004346</ECCENTRICITY><INCLINATION>69.9676</INCLINATION><RA_OF_ASC_NODE>169.0816</RA_OF_ASC_NODE><ARG_OF_PERICENTER>95.2628</ARG_OF_PERICENTER><MEAN_ANOMALY>264.9018</MEAN_ANOMALY></meanElements><tleParameters><EPHEMERIS_TYPE>0</EPHEMERIS_TYPE><CLASSIFICATION_TYPE>U</CLASSIFICATION_TYPE><NORAD_CAT_ID>23546</NORAD_CAT_ID><ELEMENT_SET_NO>999</ELEMENT_SET_NO><REV_AT_EPOCH>56447</REV_AT_EPOCH><BSTAR>.1605E-2</BSTAR><MEAN_MOTION_DOT>.12407E-3</MEAN_MOTION_DOT><MEAN_MOTION_DDOT>0</MEAN_MOTION_DDOT></tleParameters></data></segment></body></omm>
<omm id="CCSDS_OMM_VERS" version="2.0">
<header><CREATION_DATE/><ORIGINATOR/></header><body><segment><metadata><OBJECT_NAME>ORBCOMM FM08</OBJECT_NAME><OBJECT_ID>1997-084A</OBJECT_ID><CENTER_NAME>EARTH</CENTER_NAME><REF_FRAME>TEME</REF_FRAME><TIME_SYSTEM>UTC</TIME_SYSTEM><MEAN_ELEMENT_THEORY>SGP4</MEAN_ELEMENT_THEORY></metadata><data><meanElements><EPOCH>2024-07-31T09:06:00.535104</EPOCH><MEAN_MOTION>14.43040451</MEAN_MOTION><ECCENTRICITY>.0007709</ECCENTRICITY><INCLINATION>45.0144</INCLINATION><RA_OF_ASC_NODE>105.0086</RA_OF_ASC_NODE><ARG_OF_PERICENTER>66.2097</ARG_OF_PERICENTER><MEAN_ANOMALY>293.9561</MEAN_ANOMALY></meanElements><tleParameters><EPHEMERIS_TYPE>0</EPHEMERIS_TYPE><CLASSIFICATION_TYPE>U</CLASSIFICATION_TYPE><NORAD_CAT_ID>25112</NORAD_CAT_ID><ELEMENT_SET_NO>999</ELEMENT_SET_NO><REV_AT_EPOCH>39498</REV_AT_EPOCH><BSTAR>.11073E-2</BSTAR><MEAN_MOTION_DOT>.3605E-4</MEAN_MOTION_DOT><MEAN_MOTION_DDOT>0</MEAN_MOTION_DDOT></tleParameters></data></segment></body></omm>
<omm id="CCSDS_OMM_VERS" version="2.0">
<header><CREATION_DATE/><ORIGINATOR/></header><body><segment><metadata><OBJECT_NAME>ORBCOMM FM10</OBJECT_NAME><OBJECT_ID>1997-084B</OBJECT_ID><CENTER_NAME>EARTH</CENTER_NAME><REF_FRAME>TEME</REF_FRAME><TIME_SYSTEM>UTC</TIME_SYSTEM><MEAN_ELEMENT_THEORY>SGP4</MEAN_ELEMENT_THEORY></metadata><data><meanElements><EPOCH>2024-07-31T02:45:29.027520</EPOCH><MEAN_MOTION>14.42933589</MEAN_MOTION><ECCENTRICITY>.000562</ECCENTRICITY><INCLINATION>45.0155</INCLINATION><RA_OF_ASC_NODE>108.1993</RA_OF_ASC_NODE><ARG_OF_PERICENTER>36.0964</ARG_OF_PERICENTER><MEAN_ANOMALY>324.0265</MEAN_ANOMALY></meanElements><tleParameters><EPHEMERIS_TYPE>0</EPHEMERIS_TYPE><CLASSIFICATION_TYPE>U</CLASSIFICATION_TYPE><NORAD_CAT_ID>25113</NORAD_CAT_ID><ELEMENT_SET_NO>999</ELEMENT_SET_NO><REV_AT_EPOCH>57009</REV_AT_EPOCH><BSTAR>.10268E-2</BSTAR><MEAN_MOTION_DOT>.3324E-4</MEAN_MOTION_DOT><MEAN_MOTION_DDOT>0</MEAN_MOTION_DDOT></tleParameters></data></segment></body></omm>
<omm id="CCSDS_OMM_VERS" version="2.0">
<header><CREATION_DATE/><ORIGINATOR/></header><body><segment><metadata><OBJECT_NAME>ORBCOMM FM11</OBJECT_NAME><OBJECT_ID>1997-084C</OBJECT_ID><CENTER_NAME>EARTH</CENTER_NAME><REF_FRAME>TEME</REF_FRAME><TIME_SYSTEM>UTC</TIME_SYSTEM><MEAN_ELEMENT_THEORY>SGP4</MEAN_ELEMENT_THEORY></metadata><data><meanElements><EPOCH>2024-07-31T10:01:51.251520</EPOCH><MEAN_MOTION>14.42789665</MEAN_MOTION><ECCENTRICITY>.0006368</ECCENTRICITY><INCLINATION>45.0138</INCLINATION><RA_OF_ASC_NODE>106.8919</RA_OF_ASC_NODE><ARG_OF_PERICENTER>37.8693</ARG_OF_PERICENTER><MEAN_ANOMALY>322.2604</MEAN_ANOMALY></meanElements><tleParameters><EPHEMERIS_TYPE>0</EPHEMERIS_TYPE><CLASSIFICATION_TYPE>U</CLASSIFICATION_TYPE><NORAD_CAT_ID>25114</NORAD_CAT_ID><ELEMENT_SET_NO>999</ELEMENT_SET_NO><REV_AT_EPOCH>39510</REV_AT_EPOCH><BSTAR>.98602E-3</BSTAR><MEAN_MOTION_DOT>.3177E-4</MEAN_MOTION_DOT><MEAN_MOTION_DDOT>0</MEAN_MOTION_DDOT></tleParameters></data></segment></body></omm>
<omm id="CCSDS_OMM_VERS" version="2.0">
<header><CREATION_DATE/><ORIGINATOR/></header><body><segment><metadata><OBJECT_NAME>ORBCOMM FM12</OBJECT_NAME><OBJECT_ID>1997-084D</OBJECT_ID><CENTER_NAME>EARTH</CENTER_NAME><REF_FRAME>TEME</REF_FRAME><TIME_SYSTEM>UTC</TIME_SYSTEM><MEAN_ELEMENT_THEORY>SGP4</MEAN_ELEMENT_THEORY></metadata><data><meanElements><EPOCH>2024-07-31T02:28:08.615136</EPOCH><MEAN_MOTION>14.42750212</MEAN_MOTION><ECCENTRICITY>.0005442</ECCENTRICITY><INCLINATION>45.0148</INCLINATION><RA_OF_ASC_NODE>108.1214</RA_OF_ASC_NODE><ARG_OF_PERICENTER>36.2880</ARG_OF_PERICENTER><MEAN_ANOMALY>323.8339</MEAN_ANOMALY></meanElements><tleParameters><EPHEMERIS_TYPE>0</EPHEMERIS_TYPE><CLASSIFICATION_TYPE>U</CLASSIFICATION_TYPE><NORAD_CAT_ID>25115</NORAD_CAT_ID><ELEMENT_SET_NO>999</ELEMENT_SET_NO><REV_AT_EPOCH>39485</REV_AT_EPOCH><BSTAR>.99278E-3</BSTAR><MEAN_MOTION_DOT>.3197E-4</MEAN_MOTION_DOT><MEAN_MOTION_DDOT>0</MEAN_MOTION_DDOT></tleParameters></data></segment></body></omm>
<omm id="CCSDS_OMM_VERS" version="2.0">
<header><CREATION_DATE/><ORIGINATOR/></header><body><segment><metadata><OBJECT_NAME>ORBCOMM FM09</OBJECT_NAME><OBJECT_ID>1997-084E</OBJECT_ID><CENTER_NAME>EARTH</CENTER_NAME><REF_FRAME>TEME</REF_FRAME><TIME_SYSTEM>UTC</TIME_SYSTEM><MEAN_ELEMENT_THEORY>SGP4</MEAN_ELEMENT_THEORY></metadata><data><meanElements><EPOCH>2024-07-31T09:26:14.859456</EPOCH><MEAN_MOTION>14.42716120</MEAN_MOTION><ECCENTRICITY>.0006477</ECCENTRICITY><INCLINATION>45.0153</INCLINATION><RA_OF_ASC_NODE>107.4462</RA_OF_ASC_NODE><ARG_OF_PERICENTER>24.3652</ARG_OF_PERICENTER><MEAN_ANOMALY>335.7504</MEAN_ANOMALY></meanElements><tleParameters><EPHEMERIS_TYPE>0</EPHEMERIS_TYPE><CLASSIFICATION_TYPE>U</CLASSIFICATION_TYPE><NORAD_CAT_ID>25116</NORAD_CAT_ID><ELEMENT_SET_NO>999</ELEMENT_SET_NO><REV_AT_EPOCH>39510</REV_AT_EPOCH><BSTAR>.98073E-3</BSTAR><MEAN_MOTION_DOT>.3154E-4</MEAN_MOTION_DOT><MEAN_MOTION_DDOT>0</MEAN_MOTION_DDOT></tleParameters></data></segment></body></omm>

</ndm>
